[{"OBJECT_NAME":"KUIPER-00117","OBJECT_ID":"2025-228C","EPOCH":"2026-03-09T05:24:28.080864","MEAN_MOTION":14.79927968,"ECCENTRICITY":7.633e-5,"INCLINATION":51.8987,"RA_OF_ASC_NODE":0.1497,"ARG_OF_PERICENTER":80.7222,"MEAN_ANOMALY":279.3826,"EPHEMERIS_TYPE":0,"CLASSIFICATION_TYPE":"U","NORAD_CAT_ID":65949,"ELEMENT_SET_NO":999,"REV_AT_EPOCH":2319,"BSTAR":0.00013496611,"MEAN_MOTION_DOT":8.08e-6,"MEAN_MOTION_DDOT":0},{"OBJECT_NAME":"SL-14 R\/B","OBJECT_ID":"1984-027B","EPOCH":"2026-03-09T23:05:59.586144","MEAN_MOTION":14.85976757,"ECCENTRICITY":0.00173276,"INCLINATION":82.5387,"RA_OF_ASC_NODE":244.7567,"ARG_OF_PERICENTER":336.9053,"MEAN_ANOMALY":23.1383,"EPHEMERIS_TYPE":0,"CLASSIFICATION_TYPE":"U","NORAD_CAT_ID":14820,"ELEMENT_SET_NO":999,"REV_AT_EPOCH":24767,"BSTAR":7.078419e-5,"MEAN_MOTION_DOT":6.44e-6,"MEAN_MOTION_DDOT":0}]
